{
  "type": "FeatureCollection",
  "features": [
    {
      "type": "Feature",
      "properties": {
        "norad_id": 67053,
        "name": "STARLINK-35739",
        "group": "last-30-days",
        "lat": 23.78494658562521,
        "lon": -80.46403302832991,
        "alt_km": 311.1938888884042,
        "timestamp": "2025-12-21T14:40:46.637203+00:00",
        "meta_object_name": "STARLINK-35739",
        "meta_object_id": "2025-294Z",
        "meta_epoch": "2025-12-21T06:00:00.999648",
        "meta_mean_motion": 15.85849124,
        "meta_eccentricity": 0.00020534,
        "meta_inclination": 43.0004,
        "meta_ra_of_asc_node": 129.9934,
        "meta_arg_of_pericenter": 267.6508,
        "meta_mean_anomaly": 328.9104,
        "meta_ephemeris_type": 0,
        "meta_classification_type": "U",
        "meta_norad_cat_id": 67053,
        "meta_element_set_no": 999,
        "meta_rev_at_epoch": 132,
        "meta_bstar": -0.00040570502,
        "meta_mean_motion_dot": -0.00101979,
        "meta_mean_motion_ddot": 0,
        "tle_line1": "1 67053U 25294Z   25355.25001157 -.00101979  00000+0 -40571-3 0  9992",
        "tle_line2": "2 67053  43.0004 129.9934 0002053 267.6508 328.9104 15.85849124  1325"
      },
      "geometry": {
        "type": "Point",
        "coordinates": [
          -80.46403302832991,
          23.78494658562521
        ]
      }
    },
    {
      "type": "Feature",
      "properties": {
        "norad_id": 67054,
        "name": "STARLINK-35754",
        "group": "last-30-days",
        "lat": 22.25532936087085,
        "lon": -78.29229790324436,
        "alt_km": 311.3106155825417,
        "timestamp": "2025-12-21T14:40:46.637213+00:00",
        "meta_object_name": "STARLINK-35754",
        "meta_object_id": "2025-294AA",
        "meta_epoch": "2025-12-21T06:00:00.999648",
        "meta_mean_motion": 15.85837146,
        "meta_eccentricity": 0.00017731,
        "meta_inclination": 43.0003,
        "meta_ra_of_asc_node": 129.9873,
        "meta_arg_of_pericenter": 268.8634,
        "meta_mean_anomaly": 330.2235,
        "meta_ephemeris_type": 0,
        "meta_classification_type": "U",
        "meta_norad_cat_id": 67054,
        "meta_element_set_no": 999,
        "meta_rev_at_epoch": 148,
        "meta_bstar": -0.00035063176,
        "meta_mean_motion_dot": -0.00088292,
        "meta_mean_motion_ddot": 0,
        "tle_line1": "1 67054U 25294AA  25355.25001157 -.00088292  00000+0 -35063-3 0  9995",
        "tle_line2": "2 67054  43.0003 129.9873 0001773 268.8634 330.2235 15.85837146  1487"
      },
      "geometry": {
        "type": "Point",
        "coordinates": [
          -78.29229790324436,
          22.25532936087085
        ]
      }
    },
    {
      "type": "Feature",
      "properties": {
        "norad_id": 67055,
        "name": "STARLINK-35790",
        "group": "last-30-days",
        "lat": 20.758936998661195,
        "lon": -76.25149572074234,
        "alt_km": 311.3608094763604,
        "timestamp": "2025-12-21T14:40:46.637225+00:00",
        "meta_object_name": "STARLINK-35790",
        "meta_object_id": "2025-294AB",
        "meta_epoch": "2025-12-21T06:00:00.999648",
        "meta_mean_motion": 15.85890178,
        "meta_eccentricity": 0.00014247,
        "meta_inclination": 43,
        "meta_ra_of_asc_node": 129.9807,
        "meta_arg_of_pericenter": 259.6307,
        "meta_mean_anomaly": 341.8646,
        "meta_ephemeris_type": 0,
        "meta_classification_type": "U",
        "meta_norad_cat_id": 67055,
        "meta_element_set_no": 999,
        "meta_rev_at_epoch": 167,
        "meta_bstar": -0.00084511707,
        "meta_mean_motion_dot": -0.00209656,
        "meta_mean_motion_ddot": 0,
        "tle_line1": "1 67055U 25294AB  25355.25001157 -.00209656  00000+0 -84512-3 0  9998",
        "tle_line2": "2 67055  43.0000 129.9807 0001424 259.6307 341.8646 15.85890178  1679"
      },
      "geometry": {
        "type": "Point",
        "coordinates": [
          -76.25149572074234,
          20.758936998661195
        ]
      }
    },
    {
      "type": "Feature",
      "properties": {
        "norad_id": 67056,
        "name": "STARLINK-36143",
        "group": "last-30-days",
        "lat": 16.794019207586818,
        "lon": -71.16285700659047,
        "alt_km": 312.0846090163486,
        "timestamp": "2025-12-21T14:40:46.637235+00:00",
        "meta_object_name": "STARLINK-36143",
        "meta_object_id": "2025-294AC",
        "meta_epoch": "2025-12-21T06:00:00.999648",
        "meta_mean_motion": 15.8593511,
        "meta_eccentricity": 0.00015114,
        "meta_inclination": 43,
        "meta_ra_of_asc_node": 129.965,
        "meta_arg_of_pericenter": 274.7947,
        "meta_mean_anomaly": 332.8981,
        "meta_ephemeris_type": 0,
        "meta_classification_type": "U",
        "meta_norad_cat_id": 67056,
        "meta_element_set_no": 999,
        "meta_rev_at_epoch": 167,
        "meta_bstar": -0.00093946148,
        "meta_mean_motion_dot": -0.00232905,
        "meta_mean_motion_ddot": 0,
        "tle_line1": "1 67056U 25294AC  25355.25001157 -.00232905  00000+0 -93946-3 0  9993",
        "tle_line2": "2 67056  43.0000 129.9650 0001511 274.7947 332.8981 15.85935110  1679"
      },
      "geometry": {
        "type": "Point",
        "coordinates": [
          -71.16285700659047,
          16.794019207586818
        ]
      }
    },
    {
      "type": "Feature",
      "properties": {
        "norad_id": 67057,
        "name": "STARLINK-36141",
        "group": "last-30-days",
        "lat": 18.192972955280474,
        "lon": -72.91115325877016,
        "alt_km": 312.1342104201558,
        "timestamp": "2025-12-21T14:40:46.637247+00:00",
        "meta_object_name": "STARLINK-36141",
        "meta_object_id": "2025-294AD",
        "meta_epoch": "2025-12-21T06:00:00.999648",
        "meta_mean_motion": 15.85917213,
        "meta_eccentricity": 0.00021774,
        "meta_inclination": 43,
        "meta_ra_of_asc_node": 129.9707,
        "meta_arg_of_pericenter": 272.8738,
        "meta_mean_anomaly": 332.664,
        "meta_ephemeris_type": 0,
        "meta_classification_type": "U",
        "meta_norad_cat_id": 67057,
        "meta_element_set_no": 999,
        "meta_rev_at_epoch": 159,
        "meta_bstar": -0.00089257983,
        "meta_mean_motion_dot": -0.00221439,
        "meta_mean_motion_ddot": 0,
        "tle_line1": "1 67057U 25294AD  25355.25001157 -.00221439  00000+0 -89258-3 0  9995",
        "tle_line2": "2 67057  43.0000 129.9707 0002177 272.8738 332.6640 15.85917213  1594"
      },
      "geometry": {
        "type": "Point",
        "coordinates": [
          -72.91115325877016,
          18.192972955280474
        ]
      }
    },
    {
      "type": "Feature",
      "properties": {
        "norad_id": 67058,
        "name": "STARLINK-35767",
        "group": "last-30-days",
        "lat": 19.45535213005749,
        "lon": -74.53134306723564,
        "alt_km": 311.9289568648355,
        "timestamp": "2025-12-21T14:40:46.637257+00:00",
        "meta_object_name": "STARLINK-35767",
        "meta_object_id": "2025-294AE",
        "meta_epoch": "2025-12-21T06:00:00.999648",
        "meta_mean_motion": 15.85892729,
        "meta_eccentricity": 0.00022336,
        "meta_inclination": 43.0003,
        "meta_ra_of_asc_node": 129.9752,
        "meta_arg_of_pericenter": 268.4591,
        "meta_mean_anomaly": 335.1154,
        "meta_ephemeris_type": 0,
        "meta_classification_type": "U",
        "meta_norad_cat_id": 67058,
        "meta_element_set_no": 999,
        "meta_rev_at_epoch": 148,
        "meta_bstar": -0.00082306994,
        "meta_mean_motion_dot": -0.00204388,
        "meta_mean_motion_ddot": 0,
        "tle_line1": "1 67058U 25294AE  25355.25001157 -.00204388  00000+0 -82307-3 0  9998",
        "tle_line2": "2 67058  43.0003 129.9752 0002233 268.4591 335.1154 15.85892729  1489"
      },
      "geometry": {
        "type": "Point",
        "coordinates": [
          -74.53134306723564,
          19.45535213005749
        ]
      }
    },
    {
      "type": "Feature",
      "properties": {
        "norad_id": 67059,
        "name": "HULIANWANG DIGUI-119",
        "group": "last-30-days",
        "lat": 16.576296393379767,
        "lon": -10.725915316104455,
        "alt_km": 810.4176154633351,
        "timestamp": "2025-12-21T14:40:46.637267+00:00",
        "meta_object_name": "HULIANWANG DIGUI-119",
        "meta_object_id": "2025-295A",
        "meta_epoch": "2025-12-21T06:09:35.158752",
        "meta_mean_motion": 14.24613784,
        "meta_eccentricity": 0.00139853,
        "meta_inclination": 50.0066,
        "meta_ra_of_asc_node": 336.301,
        "meta_arg_of_pericenter": 276.3631,
        "meta_mean_anomaly": 83.569,
        "meta_ephemeris_type": 0,
        "meta_classification_type": "U",
        "meta_norad_cat_id": 67059,
        "meta_element_set_no": 999,
        "meta_rev_at_epoch": 133,
        "meta_bstar": -1.513292e-05,
        "meta_mean_motion_dot": -1.95e-06,
        "meta_mean_motion_ddot": 0,
        "tle_line1": "1 67059U 25295A   25355.25665693 -.00000195  00000+0 -15133-4 0  9995",
        "tle_line2": "2 67059  50.0066 336.3010 0013985 276.3631  83.5690 14.24613784  1334"
      },
      "geometry": {
        "type": "Point",
        "coordinates": [
          -10.725915316104455,
          16.576296393379767
        ]
      }
    }
  ]
}